[{"OBJECT_NAME":"STARLINK-30575","OBJECT_ID":"2023-158B","EPOCH":"2026-03-08T16:00:00.999936","MEAN_MOTION":15.27562199,"ECCENTRICITY":0.00017382,"INCLINATION":43.0037,"RA_OF_ASC_NODE":33.1816,"ARG_OF_PERICENTER":277.6806,"MEAN_ANOMALY":288.0882,"EPHEMERIS_TYPE":0,"CLASSIFICATION_TYPE":"U","NORAD_CAT_ID":58052,"ELEMENT_SET_NO":999,"REV_AT_EPOCH":574,"BSTAR":0.00025284576,"MEAN_MOTION_DOT":6.698e-5,"MEAN_MOTION_DDOT":0},{"OBJECT_NAME":"SL-24 DEB","OBJECT_ID":"2013-066AL","EPOCH":"2026-03-09T22:28:39.180576","MEAN_MOTION":15.26992446,"ECCENTRICITY":0.00036318,"INCLINATION":97.3978,"RA_OF_ASC_NODE":75.9402,"ARG_OF_PERICENTER":273.216,"MEAN_ANOMALY":86.8663,"EPHEMERIS_TYPE":0,"CLASSIFICATION_TYPE":"U","NORAD_CAT_ID":39450,"ELEMENT_SET_NO":999,"REV_AT_EPOCH":67244,"BSTAR":0.00070559472,"MEAN_MOTION_DOT":0.00018651,"MEAN_MOTION_DDOT":0}]
